OBJECT_NAME,OBJECT_ID,EPOCH,MEAN_MOTION,ECCENTRICITY,INCLINATION,RA_OF_ASC_NODE,ARG_OF_PERICENTER,MEAN_ANOMALY,EPHEMERIS_TYPE,CLASSIFICATION_TYPE,NORAD_CAT_ID,ELEMENT_SET_NO,REV_AT_EPOCH,BSTAR,MEAN_MOTION_DOT,MEAN_MOTION_DDOT
STARLINK-11722 [DTC],2025-111F,2026-07-16T14:20:56.550336,15.70843334,.00015,42.9994,276.7792,264.1746,95.8951,0,U,64128,999,6686,.94086E-3,.122081E-2,0
STARLINK-11679 [DTC],2025-111G,2026-07-17T05:13:35.791968,15.70872583,.0001359,42.9983,272.8172,277.2612,82.8101,0,U,64129,999,6701,.38037286E-3,.48712E-3,0
STARLINK-11735 [DTC],2025-111H,2026-07-17T05:44:10.901184,15.70927403,.00014913,42.9986,272.9898,263.6650,96.4048,0,U,64130,999,6686,.13054492E-2,.17118E-2,0
STARLINK-11720 [DTC],2025-111J,2026-07-17T05:21:14.658912,15.70898037,.00010603,42.9983,272.8595,260.0681,100.0068,0,U,64131,999,6696,.75490731E-3,.97801E-3,0
STARLINK-11718 [DTC],2025-111K,2026-07-17T06:16:04.424448,15.70819778,.00049537,43.0003,273.1652,295.5987,64.4369,0,U,64132,999,6706,.96744375E-3,.125534E-2,0
STARLINK-11716 [DTC],2025-111L,2026-07-17T06:07:06.882528,15.70931891,.00012592,42.9987,273.1128,137.1235,222.9731,0,U,64133,999,6706,.75818745E-3,.98375E-3,0
STARLINK-11714 [DTC],2025-111M,2026-07-17T06:29:51.836640,15.70920490,.00019024,42.9974,272.3469,265.3436,94.7214,0,U,64134,999,6702,.96883652E-3,.1262E-2,0
STARLINK-11712 [DTC],2025-111N,2026-07-17T06:22:24.565440,15.70830397,.0004149,42.9989,273.2002,294.5713,65.4722,0,U,64135,999,6701,.87377657E-3,.113199E-2,0
STARLINK-34254,2025-111P,2026-07-17T00:03:04.136544,15.27587852,.00012128,43.0024,67.2786,324.0872,35.9898,0,U,64136,999,6524,.52694241E-3,.1427E-3,0
STARLINK-34230,2025-111Q,2026-07-16T22:54:56.729664,16.18124504,.00214637,42.9715,12.2860,305.4676,54.4205,0,U,64137,999,6586,.40312955E-2,.7415635E-1,.8973196E-5
STARLINK-34129,2025-111R,2026-07-17T01:00:26.171712,15.27629291,.00013621,42.9987,67.5713,249.0788,110.9918,0,U,64138,999,6529,.99588605E-3,.27285E-3,0
STARLINK-34212,2025-111S,2026-07-17T00:17:52.192896,15.27580515,.00010977,43.0020,67.3510,276.3575,83.7152,0,U,64139,999,6524,.2331885E-3,.616E-4,0
STARLINK-34149,2025-111T,2026-07-17T00:32:40.583616,15.27578551,.00008028,43.0041,67.4233,261.7740,98.3021,0,U,64140,999,6524,.29996834E-3,.8001E-4,0
STARLINK-34054,2025-111U,2026-07-17T00:28:58.185696,15.27589690,.00011914,43.0039,67.4042,267.3573,92.7142,0,U,64141,999,6524,.29785037E-3,.7945E-4,0
STARLINK-34195,2025-111V,2026-07-16T22:38:09.450816,15.27586124,.00014513,43.0014,67.6880,276.0645,84.0042,0,U,64142,999,6523,.38347268E-3,.10307E-3,0
STARLINK-34133,2025-111W,2026-07-17T00:06:46.510272,15.27573850,.00003875,42.9989,67.2911,28.1192,331.9681,0,U,64143,999,6524,.16072011E-3,.4163E-4,0
STARLINK-34181,2025-111X,2026-07-17T00:38:13.299648,15.27590718,.0001386,43.0030,67.4550,279.4872,80.5823,0,U,64144,999,6524,.30475635E-3,.8136E-4,0
STARLINK-34186,2025-111Y,2026-07-16T23:17:01.158720,15.27581510,.00015768,43.0021,67.8893,243.2947,116.7743,0,U,64145,999,6523,.32471519E-3,.8684E-4,0
STARLINK-34314,2025-112A,2026-07-17T03:06:50.739552,15.05661270,.00018389,97.2837,246.9262,109.6951,250.4475,0,U,64146,999,6278,.18154716E-3,.2565E-4,0
STARLINK-33926,2025-112B,2026-07-17T02:30:58.689216,15.05658884,.0002345,97.2821,246.9613,130.2637,229.8796,0,U,64147,999,6278,.20670362E-3,.2928E-4,0
STARLINK-34213,2025-112C,2026-07-17T01:43:06.208032,15.05659848,.00015503,97.2846,246.8530,127.8459,232.2910,0,U,64148,999,6277,.14238277E-3,.1999E-4,0
STARLINK-33924,2025-112D,2026-07-17T00:19:22.002240,15.05658970,.00013393,97.2829,246.7782,108.6352,251.5021,0,U,64149,999,6276,.1133868E-3,.158E-4,0
STARLINK-34209,2025-112E,2026-07-16T16:44:48.296544,15.05661312,.00026023,97.2818,246.5937,107.5930,252.5582,0,U,64150,999,6272,.18678651E-3,.2641E-4,0
STARLINK-34338,2025-112F,2026-07-17T02:07:02.208000,15.05666368,.000164,97.2828,246.9833,99.9996,260.1417,0,U,64151,999,6278,-.26357215E-3,-.3859E-4,0
STARLINK-34348,2025-112G,2026-07-16T17:20:41.057088,15.05659058,.00017813,97.2832,246.5633,109.3621,250.7799,0,U,64152,999,6272,.12088696E-3,.1689E-4,0
STARLINK-34345,2025-112H,2026-07-17T02:42:55.488672,15.05659518,.00014355,97.2821,246.9505,126.8665,233.2695,0,U,64153,999,6278,.13573673E-3,.1903E-4,0
STARLINK-33945,2025-112J,2026-07-17T02:31:48.120384,15.05664015,.00009296,97.2827,255.4428,121.3615,238.7703,0,U,64154,999,6333,.20448342E-3,.2896E-4,0
STARLINK-34346,2025-112K,2026-07-17T02:22:59.865600,15.05661610,.00014029,97.2814,246.9740,120.6816,239.4550,0,U,64155,999,6278,.24474697E-3,.3478E-4,0
STARLINK-34277,2025-112L,2026-07-17T01:35:07.992672,15.05657213,.0002227,97.2840,246.8692,105.2660,254.8814,0,U,64156,999,6277,.5321528E-4,.712E-5,0
STARLINK-34343,2025-112M,2026-07-16T20:54:12.147552,15.05560654,.00169389,97.6093,248.6553,167.1417,193.0245,0,U,64157,999,6272,.65178552E-3,.9362E-4,0
