STARLINK-11722 [DTC]    
1 64128U 25111F   26197.59787674  .00122081  00000+0  94086-3 0  9992
2 64128  42.9994 276.7792 0001500 264.1746  95.8951 15.70843334 66867
STARLINK-11679 [DTC]    
1 64129U 25111G   26198.21777537  .00048712  00000+0  38037-3 0  9992
2 64129  42.9983 272.8172 0001359 277.2612  82.8101 15.70872583 67013
STARLINK-11735 [DTC]    
1 64130U 25111H   26198.23901506  .00171180  00000+0  13054-2 0  9998
2 64130  42.9986 272.9898 0001491 263.6650  96.4048 15.70927403 66867
STARLINK-11720 [DTC]    
1 64131U 25111J   26198.22308633  .00097801  00000+0  75491-3 0  9991
2 64131  42.9983 272.8595 0001060 260.0681 100.0068 15.70898037 66960
STARLINK-11718 [DTC]    
1 64132U 25111K   26198.26116232  .00125534  00000+0  96744-3 0  9997
2 64132  43.0003 273.1652 0004953 295.5987  64.4369 15.70819778 67064
STARLINK-11716 [DTC]    
1 64133U 25111L   26198.25494077  .00098375  00000+0  75819-3 0  9995
2 64133  42.9987 273.1128 0001259 137.1235 222.9731 15.70931891 67060
STARLINK-11714 [DTC]    
1 64134U 25111M   26198.27073885  .00126200  00000+0  96884-3 0  9992
2 64134  42.9974 272.3469 0001902 265.3436  94.7214 15.70920490 67028
STARLINK-11712 [DTC]    
1 64135U 25111N   26198.26556210  .00113199  00000+0  87378-3 0  9991
2 64135  42.9989 273.2002 0004149 294.5713  65.4722 15.70830397 67010
STARLINK-34254          
1 64136U 25111P   26198.00213121  .00014270  00000+0  52694-3 0  9998
2 64136  43.0024  67.2786 0001212 324.0872  35.9898 15.27587852 65242
STARLINK-34230          
1 64137U 25111Q   26197.95482326  .07415635  89732-5  40313-2 0  9993
2 64137  42.9715  12.2860 0021463 305.4676  54.4205 16.18124504 65864
STARLINK-34129          
1 64138U 25111R   26198.04196958  .00027285  00000+0  99589-3 0  9996
2 64138  42.9987  67.5713 0001362 249.0788 110.9918 15.27629291 65297
STARLINK-34212          
1 64139U 25111S   26198.01240964  .00006160  00000+0  23319-3 0  9998
2 64139  43.0020  67.3510 0001097 276.3575  83.7152 15.27580515 65240
STARLINK-34149          
1 64140U 25111T   26198.02269194  .00008001  00000+0  29997-3 0  9991
2 64140  43.0041  67.4233 0000802 261.7740  98.3021 15.27578551 65247
STARLINK-34054          
1 64141U 25111U   26198.02011789  .00007945  00000+0  29785-3 0  9998
2 64141  43.0039  67.4042 0001191 267.3573  92.7142 15.27589690 65249
STARLINK-34195          
1 64142U 25111V   26197.94316494  .00010307  00000+0  38347-3 0  9990
2 64142  43.0014  67.6880 0001451 276.0645  84.0042 15.27586124 65232
STARLINK-34133          
1 64143U 25111W   26198.00470498  .00004163  00000+0  16072-3 0  9998
2 64143  42.9989  67.2911 0000387  28.1192 331.9681 15.27573850 65249
STARLINK-34181          
1 64144U 25111X   26198.02654282  .00008136  00000+0  30476-3 0  9994
2 64144  43.0030  67.4550 0001386 279.4872  80.5823 15.27590718 65243
STARLINK-34186          
1 64145U 25111Y   26197.97015230  .00008684  00000+0  32472-3 0  9998
2 64145  43.0021  67.8893 0001576 243.2947 116.7743 15.27581510 65233
STARLINK-34314          
1 64146U 25112A   26198.12975393  .00002565  00000+0  18155-3 0  9997
2 64146  97.2837 246.9262 0001838 109.6951 250.4475 15.05661270 62784
STARLINK-33926          
1 64147U 25112B   26198.10484594  .00002928  00000+0  20670-3 0  9992
2 64147  97.2821 246.9613 0002345 130.2637 229.8796 15.05658884 62786
STARLINK-34213          
1 64148U 25112C   26198.07159963  .00001999  00000+0  14238-3 0  9998
2 64148  97.2846 246.8530 0001550 127.8459 232.2910 15.05659848 62778
STARLINK-33924          
1 64149U 25112D   26198.01344910  .00001580  00000+0  11339-3 0  9996
2 64149  97.2829 246.7782 0001339 108.6352 251.5021 15.05658970 62763
STARLINK-34209          
1 64150U 25112E   26197.69778121  .00002641  00000+0  18679-3 0  9999
2 64150  97.2818 246.5937 0002602 107.5930 252.5582 15.05661312 62720
STARLINK-34338          
1 64151U 25112F   26198.08822000 -.00003859  00000+0 -26357-3 0  9996
2 64151  97.2828 246.9833 0001640  99.9996 260.1417 15.05666368 62782
STARLINK-34348          
1 64152U 25112G   26197.72269742  .00001689  00000+0  12089-3 0  9999
2 64152  97.2832 246.5633 0001781 109.3621 250.7799 15.05659058 62729
STARLINK-34345          
1 64153U 25112H   26198.11314223  .00001903  00000+0  13574-3 0  9998
2 64153  97.2821 246.9505 0001435 126.8665 233.2695 15.05659518 62786
STARLINK-33945          
1 64154U 25112J   26198.10541806  .00002896  00000+0  20448-3 0  9997
2 64154  97.2827 255.4428 0000929 121.3615 238.7703 15.05664015 63334
STARLINK-34346          
1 64155U 25112K   26198.09930400  .00003478  00000+0  24475-3 0  9999
2 64155  97.2814 246.9740 0001402 120.6816 239.4550 15.05661610 62789
STARLINK-34277          
1 64156U 25112L   26198.06606473  .00000712  00000+0  53215-4 0  9990
2 64156  97.2840 246.8692 0002227 105.2660 254.8814 15.05657213 62773
STARLINK-34343          
1 64157U 25112M   26197.87097393  .00009362  00000+0  65179-3 0  9995
2 64157  97.6093 248.6553 0016938 167.1417 193.0245 15.05560654 62724
